[{"OBJECT_NAME":"INTELSAT 25 (IS-25)","OBJECT_ID":"2008-034A","EPOCH":"2026-04-23T01:58:38.717184","MEAN_MOTION":0.99965107,"ECCENTRICITY":0.00021655,"INCLINATION":2.567,"RA_OF_ASC_NODE":80.9425,"ARG_OF_PERICENTER":274.6153,"MEAN_ANOMALY":207.906,"EPHEMERIS_TYPE":0,"CLASSIFICATION_TYPE":"U","NORAD_CAT_ID":33153,"ELEMENT_SET_NO":999,"REV_AT_EPOCH":6514,"BSTAR":0,"MEAN_MOTION_DOT":-2.78e-6,"MEAN_MOTION_DDOT":0},{"OBJECT_NAME":"GALAXY 19 (G-19)","OBJECT_ID":"2008-045A","EPOCH":"2026-04-25T21:42:17.235360","MEAN_MOTION":1.00271959,"ECCENTRICITY":0.00032626,"INCLINATION":0.0157,"RA_OF_ASC_NODE":249.3143,"ARG_OF_PERICENTER":160.5976,"MEAN_ANOMALY":32.5645,"EPHEMERIS_TYPE":0,"CLASSIFICATION_TYPE":"U","NORAD_CAT_ID":33376,"ELEMENT_SET_NO":999,"REV_AT_EPOCH":6437,"BSTAR":0,"MEAN_MOTION_DOT":-1.53e-6,"MEAN_MOTION_DDOT":0},{"OBJECT_NAME":"FM-5","OBJECT_ID":"2009-034A","EPOCH":"2026-04-25T20:49:38.771040","MEAN_MOTION":1.00270622,"ECCENTRICITY":6.71e-5,"INCLINATION":0.0135,"RA_OF_ASC_NODE":264.8841,"ARG_OF_PERICENTER":28.0187,"MEAN_ANOMALY":147.235,"EPHEMERIS_TYPE":0,"CLASSIFICATION_TYPE":"U","NORAD_CAT_ID":35493,"ELEMENT_SET_NO":999,"REV_AT_EPOCH":4611,"BSTAR":0,"MEAN_MOTION_DOT":-2.14e-6,"MEAN_MOTION_DDOT":0},{"OBJECT_NAME":"INTELSAT 14 (IS-14)","OBJECT_ID":"2009-064A","EPOCH":"2026-04-25T21:57:08.309664","MEAN_MOTION":1.00272425,"ECCENTRICITY":0.00024888,"INCLINATION":0.0104,"RA_OF_ASC_NODE":63.2911,"ARG_OF_PERICENTER":331.3332,"MEAN_ANOMALY":103.5822,"EPHEMERIS_TYPE":0,"CLASSIFICATION_TYPE":"U","NORAD_CAT_ID":36097,"ELEMENT_SET_NO":999,"REV_AT_EPOCH":6008,"BSTAR":0,"MEAN_MOTION_DOT":-2.87e-6,"MEAN_MOTION_DDOT":0},{"OBJECT_NAME":"INTELSAT 15 (IS-15)","OBJECT_ID":"2009-067A","EPOCH":"2026-04-25T22:34:12.255168","MEAN_MOTION":1.00271873,"ECCENTRICITY":0.00022342,"INCLINATION":0.0293,"RA_OF_ASC_NODE":92.3225,"ARG_OF_PERICENTER":301.7107,"MEAN_ANOMALY":243.6214,"EPHEMERIS_TYPE":0,"CLASSIFICATION_TYPE":"U","NORAD_CAT_ID":36106,"ELEMENT_SET_NO":999,"REV_AT_EPOCH":4070,"BSTAR":0,"MEAN_MOTION_DOT":-1.99e-6,"MEAN_MOTION_DDOT":0},{"OBJECT_NAME":"DIRECTV 12","OBJECT_ID":"2009-075A","EPOCH":"2026-04-25T21:40:39.890208","MEAN_MOTION":1.0027185,"ECCENTRICITY":1.96e-5,"INCLINATION":0.0414,"RA_OF_ASC_NODE":77.7171,"ARG_OF_PERICENTER":309.0804,"MEAN_ANOMALY":49.5525,"EPHEMERIS_TYPE":0,"CLASSIFICATION_TYPE":"U","NORAD_CAT_ID":36131,"ELEMENT_SET_NO":999,"REV_AT_EPOCH":4602,"BSTAR":0,"MEAN_MOTION_DOT":-1.17e-6,"MEAN_MOTION_DDOT":0},{"OBJECT_NAME":"INTELSAT 16 (IS-16)","OBJECT_ID":"2010-006A","EPOCH":"2026-04-25T20:49:38.771040","MEAN_MOTION":1.0027165,"ECCENTRICITY":0.00020537,"INCLINATION":0.0073,"RA_OF_ASC_NODE":128.9114,"ARG_OF_PERICENTER":289.366,"MEAN_ANOMALY":31.8187,"EPHEMERIS_TYPE":0,"CLASSIFICATION_TYPE":"U","NORAD_CAT_ID":36397,"ELEMENT_SET_NO":999,"REV_AT_EPOCH":5912,"BSTAR":0,"MEAN_MOTION_DOT":-2.58e-6,"MEAN_MOTION_DDOT":0},{"OBJECT_NAME":"XM-5","OBJECT_ID":"2010-053A","EPOCH":"2026-04-25T03:58:38.722944","MEAN_MOTION":1.0027189,"ECCENTRICITY":0.00035559,"INCLINATION":0.0622,"RA_OF_ASC_NODE":271.1719,"ARG_OF_PERICENTER":277.0771,"MEAN_ANOMALY":329.4028,"EPHEMERIS_TYPE":0,"CLASSIFICATION_TYPE":"U","NORAD_CAT_ID":37185,"ELEMENT_SET_NO":999,"REV_AT_EPOCH":5695,"BSTAR":0,"MEAN_MOTION_DOT":-3.8e-7,"MEAN_MOTION_DDOT":0},{"OBJECT_NAME":"INTELSAT 17 (IS-17)","OBJECT_ID":"2010-065B","EPOCH":"2026-04-25T22:13:46.505280","MEAN_MOTION":1.00271349,"ECCENTRICITY":0.0002789,"INCLINATION":0.014,"RA_OF_ASC_NODE":186.0531,"ARG_OF_PERICENTER":225.2729,"MEAN_ANOMALY":202.0547,"EPHEMERIS_TYPE":0,"CLASSIFICATION_TYPE":"U","NORAD_CAT_ID":37238,"ELEMENT_SET_NO":999,"REV_AT_EPOCH":5272,"BSTAR":0,"MEAN_MOTION_DOT":-1.5e-7,"MEAN_MOTION_DDOT":0},{"OBJECT_NAME":"INTELSAT 28 (IS-28)","OBJECT_ID":"2011-016A","EPOCH":"2026-04-25T22:01:00.438816","MEAN_MOTION":1.0027096,"ECCENTRICITY":0.00041387,"INCLINATION":1.6729,"RA_OF_ASC_NODE":83.2207,"ARG_OF_PERICENTER":315.5178,"MEAN_ANOMALY":113.731,"EPHEMERIS_TYPE":0,"CLASSIFICATION_TYPE":"U","NORAD_CAT_ID":37392,"ELEMENT_SET_NO":999,"REV_AT_EPOCH":5276,"BSTAR":0,"MEAN_MOTION_DOT":-2.37e-6,"MEAN_MOTION_DDOT":0},{"OBJECT_NAME":"INTELSAT 18 (IS-18)","OBJECT_ID":"2011-056A","EPOCH":"2026-04-25T19:10:38.557632","MEAN_MOTION":1.00271707,"ECCENTRICITY":0.00019135,"INCLINATION":0.0186,"RA_OF_ASC_NODE":241.5106,"ARG_OF_PERICENTER":150.6451,"MEAN_ANOMALY":289.3189,"EPHEMERIS_TYPE":0,"CLASSIFICATION_TYPE":"U","NORAD_CAT_ID":37834,"ELEMENT_SET_NO":999,"REV_AT_EPOCH":5328,"BSTAR":0,"MEAN_MOTION_DOT":0,"MEAN_MOTION_DDOT":0},{"OBJECT_NAME":"INTELSAT 22 (IS-22)","OBJECT_ID":"2012-011A","EPOCH":"2026-04-25T22:43:20.544384","MEAN_MOTION":1.00270632,"ECCENTRICITY":0.00017658,"INCLINATION":0.0198,"RA_OF_ASC_NODE":113.1758,"ARG_OF_PERICENTER":286.0445,"MEAN_ANOMALY":227.6724,"EPHEMERIS_TYPE":0,"CLASSIFICATION_TYPE":"U","NORAD_CAT_ID":38098,"ELEMENT_SET_NO":999,"REV_AT_EPOCH":666,"BSTAR":0,"MEAN_MOTION_DOT":-7.2e-7,"MEAN_MOTION_DDOT":0},{"OBJECT_NAME":"INTELSAT 19 (IS-19)","OBJECT_ID":"2012-030A","EPOCH":"2026-04-25T21:02:38.627808","MEAN_MOTION":1.00272058,"ECCENTRICITY":0.00028965,"INCLINATION":0.037,"RA_OF_ASC_NODE":80.7389,"ARG_OF_PERICENTER":313.7431,"MEAN_ANOMALY":301.0709,"EPHEMERIS_TYPE":0,"CLASSIFICATION_TYPE":"U","NORAD_CAT_ID":38356,"ELEMENT_SET_NO":999,"REV_AT_EPOCH":4992,"BSTAR":0,"MEAN_MOTION_DOT":-7.0e-7,"MEAN_MOTION_DDOT":0},{"OBJECT_NAME":"INTELSAT 20 (IS-20)","OBJECT_ID":"2012-043A","EPOCH":"2026-04-25T22:17:41.443296","MEAN_MOTION":1.00269064,"ECCENTRICITY":0.00021763,"INCLINATION":0.0167,"RA_OF_ASC_NODE":164.4319,"ARG_OF_PERICENTER":9.2299,"MEAN_ANOMALY":83.1973,"EPHEMERIS_TYPE":0,"CLASSIFICATION_TYPE":"U","NORAD_CAT_ID":38740,"ELEMENT_SET_NO":999,"REV_AT_EPOCH":5022,"BSTAR":0,"MEAN_MOTION_DOT":-3.7e-7,"MEAN_MOTION_DDOT":0},{"OBJECT_NAME":"INTELSAT 21 (IS-21)","OBJECT_ID":"2012-045A","EPOCH":"2026-04-25T20:57:38.714400","MEAN_MOTION":1.00271236,"ECCENTRICITY":0.00020166,"INCLINATION":0.0563,"RA_OF_ASC_NODE":77.9509,"ARG_OF_PERICENTER":327.1216,"MEAN_ANOMALY":65.2188,"EPHEMERIS_TYPE":0,"CLASSIFICATION_TYPE":"U","NORAD_CAT_ID":38749,"ELEMENT_SET_NO":999,"REV_AT_EPOCH":5000,"BSTAR":0,"MEAN_MOTION_DOT":-2.98e-6,"MEAN_MOTION_DDOT":0},{"OBJECT_NAME":"INTELSAT 23 (IS-23)","OBJECT_ID":"2012-057A","EPOCH":"2026-04-25T21:54:53.525664","MEAN_MOTION":1.00267824,"ECCENTRICITY":1.039e-5,"INCLINATION":0.017,"RA_OF_ASC_NODE":265.8697,"ARG_OF_PERICENTER":180.6944,"MEAN_ANOMALY":43.0473,"EPHEMERIS_TYPE":0,"CLASSIFICATION_TYPE":"U","NORAD_CAT_ID":38867,"ELEMENT_SET_NO":999,"REV_AT_EPOCH":4943,"BSTAR":0,"MEAN_MOTION_DOT":-2.98e-6,"MEAN_MOTION_DDOT":0},{"OBJECT_NAME":"FM-6","OBJECT_ID":"2013-058A","EPOCH":"2026-04-25T21:36:47.761056","MEAN_MOTION":1.00275189,"ECCENTRICITY":2.853e-5,"INCLINATION":0.01,"RA_OF_ASC_NODE":250.8263,"ARG_OF_PERICENTER":54.1486,"MEAN_ANOMALY":116.7836,"EPHEMERIS_TYPE":0,"CLASSIFICATION_TYPE":"U","NORAD_CAT_ID":39360,"ELEMENT_SET_NO":999,"REV_AT_EPOCH":4554,"BSTAR":0,"MEAN_MOTION_DOT":-3.0e-7,"MEAN_MOTION_DDOT":0}]
